OBJECT_NAME,OBJECT_ID,EPOCH,MEAN_MOTION,ECCENTRICITY,INCLINATION,RA_OF_ASC_NODE,ARG_OF_PERICENTER,MEAN_ANOMALY,EPHEMERIS_TYPE,CLASSIFICATION_TYPE,NORAD_CAT_ID,ELEMENT_SET_NO,REV_AT_EPOCH,BSTAR,MEAN_MOTION_DOT,MEAN_MOTION_DDOT
STARLINK-37353,2026-111K,2026-06-12T06:31:09.986304,15.80970939,.00012173,53.1575,176.2443,121.3857,238.7285,0,U,69157,999,348,.12249948E-2,.249308E-2,0
STARLINK-37363,2026-111L,2026-06-12T20:07:29.761824,15.81016913,.0001396,53.1561,173.3774,19.1491,340.9584,0,U,69158,999,357,.149E-2,.306055E-2,0
STARLINK-37343,2026-111M,2026-06-12T20:00:01.999008,15.49235064,.0000788,53.1595,174.1374,116.9315,211.7093,0,U,69159,999,484,.13736E-2,.76498E-3,0
STARLINK-37328,2026-111N,2026-06-12T20:07:18.465024,15.81023198,.0001167,53.1571,173.3768,157.0972,203.0103,0,U,69160,999,357,.16352E-2,.337303E-2,0
STARLINK-37311,2026-111P,2026-06-12T20:21:49.866912,15.78108827,.0000842,53.1575,173.4450,114.8597,245.2513,0,U,69161,999,357,.1015E-2,.179758E-2,0
STARLINK-36286,2026-111Q,2026-06-12T06:39:47.623392,15.78099746,.00015775,53.1579,176.2837,134.7051,225.4099,0,U,69162,999,348,.7822129E-3,.137631E-2,0
STARLINK-37196,2026-111R,2026-06-12T06:43:43.896288,15.78125162,.00011083,53.1581,176.3016,56.5265,303.5863,0,U,69163,999,348,.12127333E-2,.215982E-2,0
STARLINK-36288,2026-111S,2026-06-12T20:23:25.644768,15.77920334,.0002503,53.1574,173.4518,196.6684,163.4256,0,U,69164,999,357,.14017E-2,.248415E-2,0
STARLINK-37445,2026-111T,2026-06-12T06:38:16.793664,15.78150257,.00011397,53.1575,176.2752,107.9862,252.1284,0,U,69165,999,348,.34070148E-2,.64017E-2,0
STARLINK-37491,2026-111U,2026-06-12T06:41:24.991008,15.78115929,.00019753,53.1575,176.2897,155.7467,204.3648,0,U,69166,999,348,.10269118E-2,.181981E-2,0
STARLINK-37474,2026-111V,2026-06-12T03:35:20.530752,15.78080927,.00012859,53.1578,176.9048,116.1535,243.9618,0,U,69167,999,346,.98208083E-3,.173556E-2,0
STARLINK-37469,2026-111W,2026-06-12T20:00:01.999008,15.49297706,.0000742,53.1586,174.3267,128.6060,105.7961,0,U,69168,999,484,.20129E-2,.11309E-2,0
STARLINK-37515,2026-111X,2026-06-12T05:04:11.047872,15.78119551,.00011067,53.1582,176.5795,83.9397,276.1751,0,U,69169,999,347,.99256698E-3,.175767E-2,0
STARLINK-37437,2026-111Y,2026-06-12T06:29:13.454304,15.78096750,.00009114,53.1587,176.2341,95.6872,264.4253,0,U,69170,999,348,.75737612E-3,.133149E-2,0
STARLINK-37392,2026-111Z,2026-06-12T06:25:35.644224,15.78101143,.00011284,53.1583,176.2158,86.1797,273.9353,0,U,69171,999,348,.80051594E-3,.140929E-2,0
STARLINK-37472,2026-111AA,2026-06-12T20:00:01.999008,15.64452133,.0000832,53.1590,173.4800,89.6519,201.3371,0,U,69172,999,485,-.30265E-1,-.2571791E-1,0
STARLINK-37461,2026-111AB,2026-06-12T20:00:01.999008,15.49250443,.0001251,53.1585,174.2343,105.4777,174.3368,0,U,69173,999,484,.13667E-2,.76148E-3,0
STARLINK-37333,2026-111AC,2026-06-12T20:00:01.999008,15.71350113,.0001221,53.1589,173.4904,95.6390,190.9112,0,U,69174,999,484,-.1183E-1,-.1364814E-1,0
STARLINK-37385,2026-111AD,2026-06-12T20:00:01.999008,15.49250770,.0001083,53.1591,174.1470,83.4351,239.1966,0,U,69175,999,484,.14154E-2,.78907E-3,0
STARLINK-37414,2026-111AE,2026-06-12T20:07:33.106368,15.78127998,.0000794,53.1580,173.3762,114.4160,245.6944,0,U,69176,999,357,.11194E-2,.198933E-2,0
STARLINK-37380,2026-114A,2026-06-12T05:11:23.419392,15.78117412,.00019349,53.1585,227.3176,37.3750,322.7406,0,U,69182,999,398,.13035399E-2,.232582E-2,0
STARLINK-37089,2026-114B,2026-06-12T06:41:14.193600,15.78098243,.00011459,53.1588,226.9956,75.0202,285.0946,0,U,69183,999,399,.87946931E-3,.155135E-2,0
STARLINK-37428,2026-114C,2026-06-12T06:39:12.869856,15.78093237,.00012523,53.1589,226.9869,79.6679,280.4483,0,U,69184,999,399,.83555332E-3,.147183E-2,0
STARLINK-37237,2026-114D,2026-06-12T18:44:48.813792,15.78082390,.0000936,53.1590,224.4386,106.7295,253.3829,0,U,69185,999,407,.34213E-3,.5922E-3,0
STARLINK-37365,2026-114E,2026-06-12T05:04:30.097344,15.78117408,.00014364,53.1590,227.2858,31.4940,328.6167,0,U,69186,999,398,.11465675E-2,.203796E-2,0
STARLINK-37209,2026-114F,2026-06-12T06:34:35.210496,15.78094729,.00010694,53.1593,226.9646,72.5557,287.5581,0,U,69187,999,399,.72873664E-3,.128E-2,0
STARLINK-37359,2026-114G,2026-06-12T18:43:32.302272,15.78107789,.0000943,53.1592,224.4330,71.2316,288.8808,0,U,69188,999,407,.7443E-3,.130869E-2,0
