STARLINK-37353          
1 69157U 26111K   26163.27164336  .00249308  00000+0  12250-2 0  9996
2 69157  53.1575 176.2443 0001217 121.3857 238.7285 15.80970939  3482
STARLINK-37363          
1 69158U 26111L   26163.83853891  .00306055  00000+0  14900-2 0  9997
2 69158  53.1561 173.3774 0001396  19.1491 340.9584 15.81016913  3571
STARLINK-37343          
1 69159U 26111M   26163.83335647  .00076498  00000+0  13736-2 0  9993
2 69159  53.1595 174.1374 0000788 116.9315 211.7093 15.49235064  4844
STARLINK-37328          
1 69160U 26111N   26163.83840816  .00337303  00000+0  16352-2 0  9996
2 69160  53.1571 173.3768 0001167 157.0972 203.0103 15.81023198  3579
STARLINK-37311          
1 69161U 26111P   26163.84849383  .00179758  00000+0  10150-2 0  9994
2 69161  53.1575 173.4450 0000842 114.8597 245.2513 15.78108827  3578
STARLINK-36286          
1 69162U 26111Q   26163.27763453  .00137631  00000+0  78221-3 0  9993
2 69162  53.1579 176.2837 0001577 134.7051 225.4099 15.78099746  3483
STARLINK-37196          
1 69163U 26111R   26163.28036917  .00215982  00000+0  12127-2 0  9991
2 69163  53.1581 176.3016 0001108  56.5265 303.5863 15.78125162  3484
STARLINK-36288          
1 69164U 26111S   26163.84960237  .00248415  00000+0  14017-2 0  9992
2 69164  53.1574 173.4518 0002503 196.6684 163.4256 15.77920334  3575
STARLINK-37445          
1 69165U 26111T   26163.27658326  .00640170  00000+0  34070-2 0  9998
2 69165  53.1575 176.2752 0001139 107.9862 252.1284 15.78150257  3482
STARLINK-37491          
1 69166U 26111U   26163.27876147  .00181981  00000+0  10269-2 0  9996
2 69166  53.1575 176.2897 0001975 155.7467 204.3648 15.78115929  3483
STARLINK-37474          
1 69167U 26111V   26163.14954318  .00173556  00000+0  98208-3 0  9999
2 69167  53.1578 176.9048 0001285 116.1535 243.9618 15.78080927  3466
STARLINK-37469          
1 69168U 26111W   26163.83335647  .00113090  00000+0  20129-2 0  9997
2 69168  53.1586 174.3267 0000742 128.6060 105.7961 15.49297706  4841
STARLINK-37515          
1 69169U 26111X   26163.21123898  .00175767  00000+0  99257-3 0  9991
2 69169  53.1582 176.5795 0001106  83.9397 276.1751 15.78119551  3470
STARLINK-37437          
1 69170U 26111Y   26163.27029461  .00133149  00000+0  75738-3 0  9996
2 69170  53.1587 176.2341 0000911  95.6872 264.4253 15.78096750  3485
STARLINK-37392          
1 69171U 26111Z   26163.26777366  .00140929  00000+0  80052-3 0  9999
2 69171  53.1583 176.2158 0001128  86.1797 273.9353 15.78101143  3489
STARLINK-37472          
1 69172U 26111AA  26163.83335647 -.02571791  00000+0 -30265-1 0  9993
2 69172  53.1590 173.4800 0000832  89.6519 201.3371 15.64452133  4852
STARLINK-37461          
1 69173U 26111AB  26163.83335647  .00076148  00000+0  13667-2 0  9994
2 69173  53.1585 174.2343 0001251 105.4777 174.3368 15.49250443  4844
STARLINK-37333          
1 69174U 26111AC  26163.83335647 -.01364814  00000+0 -11830-1 0  9997
2 69174  53.1589 173.4904 0001221  95.6390 190.9112 15.71350113  4842
STARLINK-37385          
1 69175U 26111AD  26163.83335647  .00078907  00000+0  14154-2 0  9993
2 69175  53.1591 174.1470 0001083  83.4351 239.1966 15.49250770  4846
STARLINK-37414          
1 69176U 26111AE  26163.83857762  .00198933  00000+0  11194-2 0  9994
2 69176  53.1580 173.3762 0000794 114.4160 245.6944 15.78127998  3575
STARLINK-37380          
1 69182U 26114A   26163.21624328  .00232582  00000+0  13035-2 0  9991
2 69182  53.1585 227.3176 0001934  37.3750 322.7406 15.78117412  3986
STARLINK-37089          
1 69183U 26114B   26163.27863650  .00155135  00000+0  87947-3 0  9993
2 69183  53.1588 226.9956 0001145  75.0202 285.0946 15.78098243  3997
STARLINK-37428          
1 69184U 26114C   26163.27723229  .00147183  00000+0  83555-3 0  9996
2 69184  53.1589 226.9869 0001252  79.6679 280.4483 15.78093237  3992
STARLINK-37237          
1 69185U 26114D   26163.78112053  .00059220  00000+0  34213-3 0  9991
2 69185  53.1590 224.4386 0000936 106.7295 253.3829 15.78082390  4077
STARLINK-37365          
1 69186U 26114E   26163.21145946  .00203796  00000+0  11466-2 0  9990
2 69186  53.1590 227.2858 0001436  31.4940 328.6167 15.78117408  3989
STARLINK-37209          
1 69187U 26114F   26163.27401864  .00128000  00000+0  72874-3 0  9996
2 69187  53.1593 226.9646 0001069  72.5557 287.5581 15.78094729  3990
STARLINK-37359          
1 69188U 26114G   26163.78023498  .00130869  00000+0  74430-3 0  9992
2 69188  53.1592 224.4330 0000943  71.2316 288.8808 15.78107789  4079
